NORAD_CAT_ID,OBJECT_NAME,OBJECT_TYPE,EPOCH,MEAN_MOTION,ECCENTRICITY,INCLINATION,RA_OF_ASC_NODE,ARG_OF_PERICENTER,MEAN_ANOMALY,BSTAR,MEAN_MOTION_DOT,MEAN_MOTION_DDOT,TLE_LINE0,TLE_LINE1,TLE_LINE2,SEMIMAJOR_AXIS,PERIOD,APOGEE,PERIGEE,DECAYED
52494.0,STARLINK-3857,PAYLOAD,2022-07-29 00:00:00,15.40975174,0.0001509,53.2176,214.8524,41.2216,352.6802,-0.0277639999999999,-0.01067462,0.0,0 STARLINK-3857,1 52494U 22049AV  22210.00001157 -.01067462  00000-0 -27764-1 0  9997,2 52494  53.2176 214.8524 0001509  41.2216 352.6802 15.40975174 13303,6821.3669999999975,93.447,444.261,442.203,0.0
52494.0,STARLINK-3857,PAYLOAD,2022-07-29 14:00:01,15.39648445,0.0001599,53.2172,212.1131,36.3654,353.9861,-0.029118,-0.01070904,0.0,0 STARLINK-3857,1 52494U 22049AV  22210.58334491 -.01070904  00000-0 -29118-1 0  9990,2 52494  53.2172 212.1131 0001599  36.3654 353.9861 15.39648445  1306,6825.285,93.528,448.241,446.059,0.0
52494.0,STARLINK-3857,PAYLOAD,2022-07-29 22:00:00,15.38886716,0.0001656,53.2174,210.5477,37.7019,40.7977,-0.029788,-0.01068539,0.0,0 STARLINK-3857,1 52494U 22049AV  22210.91667824 -.01068539  00000-0 -29788-1 0  9990,2 52494  53.2174 210.5477 0001656  37.7019  40.7977 15.38886716 13448,6827.5369999999975,93.574,450.533,448.272,0.0
52494.0,STARLINK-3857,PAYLOAD,2022-07-30 14:00:01,15.37368941,0.0001710999999999,53.2173,207.4272,43.8577,128.1942,-0.031329,-0.01069215,0.0,0 STARLINK-3857,1 52494U 22049AV  22211.58334491 -.01069215  00000-0 -31329-1 0  9991,2 52494  53.2173 207.4272 0001711  43.8577 128.1942 15.37368941  1303,6832.03,93.667,455.064,452.726,0.0
52494.0,STARLINK-3857,PAYLOAD,2022-07-30 22:00:00,15.36609306,0.0001764,53.2173,205.8674,41.1988,176.2619,-0.032126,-0.01069623,0.0,0 STARLINK-3857,1 52494U 22049AV  22211.91667824 -.01069623  00000-0 -32126-1 0  9996,2 52494  53.2173 205.8674 0001764  41.1988 176.2619 15.36609306 13597,6834.281999999997,93.713,457.352,454.941,0.0
52494.0,STARLINK-3857,PAYLOAD,2022-07-31 14:00:01,15.35091888,0.0001476,53.2172,202.7575,46.0443,259.4929,-0.033815,-0.01071749,0.0,0 STARLINK-3857,1 52494U 22049AV  22212.58334491 -.01071749  00000-0 -33815-1 0  9999,2 52494  53.2172 202.7575 0001476  46.0443 259.4929 15.35091888  1305,6838.785,93.805,461.659,459.64,0.0
52494.0,STARLINK-3857,PAYLOAD,2022-07-31 22:00:00,15.34328434,0.0001559,53.2173,201.2032,39.9341,308.2752,-0.034424,-0.01065257,0.0,0 STARLINK-3857,1 52494U 22049AV  22212.91667824 -.01065257  00000-0 -34424-1 0  9999,2 52494  53.2173 201.2032 0001559  39.9341 308.2752 15.34328434 13756,6841.053000000001,93.852,463.984,461.851,0.0
52494.0,STARLINK-3857,PAYLOAD,2022-08-01 14:00:01,15.32811368,0.0001672,53.2173,198.1042,37.7079,33.1017,-0.0362209999999999,-0.0106782999999999,0.0,0 STARLINK-3857,1 52494U 22049AV  22213.58334491 -.01067830  00000-0 -36221-1 0  9990,2 52494  53.2173 198.1042 0001672  37.7079  33.1017 15.32811368  1308,6845.566,93.945,468.576,466.286,0.0
52494.0,STARLINK-3857,PAYLOAD,2022-08-01 22:00:00,15.3205113,0.0001807,53.2174,196.5552,37.7901,72.9525,-0.037052,-0.01066546,0.0,0 STARLINK-3857,1 52494U 22049AV  22213.91667824 -.01066546  00000-0 -37052-1 0  9992,2 52494  53.2174 196.5552 0001807  37.7901  72.9525 15.32051130 13908,6847.83,93.992,470.9330000000001,468.458,0.0
52494.0,STARLINK-3857,PAYLOAD,2022-08-02 14:00:01,15.30532772,0.0001785,53.2174,193.4668,42.0814,145.7862,-0.038891,-0.0106732999999999,0.0,0 STARLINK-3857,1 52494U 22049AV  22214.58334491 -.01067330  00000-0 -38891-1 0  9991,2 52494  53.2174 193.4668 0001785  42.0814 145.7862 15.30532772 14008,6852.359,94.085,475.447,473.001,0.0
52494.0,STARLINK-3857,PAYLOAD,2022-08-03 14:00:01,15.28255436,0.000161,53.2174,188.8456,41.8441,254.867,-0.041824,-0.01069352,0.0,0 STARLINK-3857,1 52494U 22049AV  22215.58334491 -.01069352  00000-0 -41824-1 0  9998,2 52494  53.2174 188.8456 0001610  41.8441 254.8670 15.28255436 14163,6859.1640000000025,94.225,482.134,479.925,0.0
52494.0,STARLINK-3857,PAYLOAD,2022-08-03 22:00:01,15.27492453,0.0001728,53.2176,187.3078,36.2522,294.98,-0.042522,-0.01062638,0.0,0 STARLINK-3857,1 52494U 22049AV  22215.91668981 -.01062638  00000-0 -42522-1 0  9995,2 52494  53.2176 187.3078 0001728  36.2522 294.9800 15.27492453  1300,6861.448,94.272,484.499,482.128,0.0
52494.0,STARLINK-3857,PAYLOAD,2022-08-04 14:00:01,15.25975788,0.0001686,53.2175,184.2406,36.279,1.0625,-0.044742,-0.01067153,0.0,0 STARLINK-3857,1 52494U 22049AV  22216.58334491 -.01067153  00000-0 -44742-1 0  9998,2 52494  53.2175 184.2406 0001686  36.2790   1.0625 15.25975788  1307,6865.994000000002,94.366,489.016,486.701,0.0
52494.0,STARLINK-3857,PAYLOAD,2022-08-04 22:00:00,15.252137300000005,0.0002142,53.2175,182.7083,26.7927,42.2678,-0.045555,-0.01062285,0.0,0 STARLINK-3857,1 52494U 22049AV  22216.91667824 -.01062285  00000-0 -45555-1 0  9998,2 52494  53.2175 182.7083 0002142  26.7927  42.2678 15.25213730  1302,6868.281,94.413,491.617,488.675,0.0
52494.0,STARLINK-3857,PAYLOAD,2022-08-05 14:00:01,15.23696674,0.0001634,53.2175,179.6515,45.1763,84.6447,-0.047848,-0.01065559,0.0,0 STARLINK-3857,1 52494U 22049AV  22217.58335648 -.01065559  00000-0 -47848-1 0  9992,2 52494  53.2175 179.6515 0001634  45.1763  84.6447 15.23696674  1309,6872.839,94.507,495.827,493.581,0.0
52494.0,STARLINK-3857,PAYLOAD,2022-08-05 22:00:00,15.22936092,0.0001674,53.2177,178.1248,50.5314,108.2066,-0.0488269999999999,-0.01063147,0.0,0 STARLINK-3857,1 52494U 22049AV  22217.91667824 -.01063147  00000-0 -48827-1 0  9992,2 52494  53.2177 178.1248 0001674  50.5314 108.2066 15.22936092  1304,6875.127,94.554,498.143,495.841,0.0
52494.0,STARLINK-3857,PAYLOAD,2022-08-06 14:00:01,15.21418631,0.0001525,53.2175,175.0786,59.0242,154.935,-0.051229,-0.01066019,0.0,0 STARLINK-3857,1 52494U 22049AV  22218.58334491 -.01066019  00000-0 -51229-1 0  9998,2 52494  53.2175 175.0786 0001525  59.0242 154.9350 15.21418631  1301,6879.698,94.649,502.612,500.514,0.0
52494.0,STARLINK-3857,PAYLOAD,2022-08-06 20:57:42,15.22780589,0.0001704,53.2194,173.7303,319.8753,40.2119,-0.014365,-0.0032559,0.0,0 STARLINK-3857,1 52494U 22049AV  22218.87340528 -.00325590  00000-0 -14365-1 0  9999,2 52494  53.2194 173.7303 0001704 319.8753  40.2119 15.22780589 14663,6875.595,94.564,498.632,496.288,0.0
52494.0,STARLINK-3857,PAYLOAD,2022-08-07 06:00:00,15.19897313,0.0001548,53.2176,172.0402,55.8105,209.7197,-0.053322,-0.01061414,0.0,0 STARLINK-3857,1 52494U 22049AV  22219.25001157 -.01061414  00000-0 -53322-1 0  9993,2 52494  53.2176 172.0402 0001548  55.8105 209.7197 15.19897313 14724,6884.288000000001,94.743,507.218,505.087,0.0
52494.0,STARLINK-3857,PAYLOAD,2022-08-07 14:00:01,15.19140379,0.0001472,53.2175,170.5216,52.931,237.0162,-0.0548,-0.01080022,0.0,0 STARLINK-3857,1 52494U 22049AV  22219.58334491 -.01080022  00000-0 -54800-1 0  9997,2 52494  53.2175 170.5216 0001472  52.9310 237.0162 15.19140379  1300,6886.574000000001,94.79,509.453,507.426,0.0
52494.0,STARLINK-3857,PAYLOAD,2022-08-07 22:00:00,15.18378939,0.0001437,53.2176,169.0058,55.685,257.7667,-0.055784,-0.01075669,0.0,0 STARLINK-3857,1 52494U 22049AV  22219.91667824 -.01075669  00000-0 -55784-1 0  9996,2 52494  53.2176 169.0058 0001437  55.6850 257.7667 15.18378939  1301,6888.876,94.838,511.731,509.751,0.0
52494.0,STARLINK-3857,PAYLOAD,2022-08-08 06:00:00,15.17619077,0.0001488,53.2175,167.4941,49.7584,286.2837,-0.0570059999999999,-0.01075347,0.0,0 STARLINK-3857,1 52494U 22049AV  22220.25001157 -.01075347  00000-0 -57006-1 0  9998,2 52494  53.2175 167.4941 0001488  49.7584 286.2837 15.17619077 14879,6891.176,94.885,514.066,512.015,0.0
52494.0,STARLINK-3857,PAYLOAD,2022-08-08 14:00:01,15.1686093,0.0001479,53.2175,165.9805,46.25899999999999,311.5259,-0.058459,-0.01078654,0.0,0 STARLINK-3857,1 52494U 22049AV  22220.58335648 -.01078654  00000-0 -58459-1 0  9996,2 52494  53.2175 165.9805 0001479  46.2590 311.5259 15.16860930  1309,6893.472,94.933,516.356,514.317,0.0
52494.0,STARLINK-3857,PAYLOAD,2022-08-08 22:00:00,15.16100463,0.0001675,53.2175,164.4704,39.795,338.6927,-0.05959,-0.01076019,0.0,0 STARLINK-3857,1 52494U 22049AV  22220.91667824 -.01076019  00000-0 -59590-1 0  9997,2 52494  53.2175 164.4704 0001675  39.7950 338.6927 15.16100463  1306,6895.776999999999,94.981,518.797,516.487,0.0
52494.0,STARLINK-3857,PAYLOAD,2022-08-09 06:00:00,15.15339723,0.0001597,53.2174,162.9637,44.1378,354.2028,-0.0608,-0.01074366,0.0,0 STARLINK-3857,1 52494U 22049AV  22221.25001157 -.01074366  00000-0 -60800-1 0  9995,2 52494  53.2174 162.9637 0001597  44.1378 354.2028 15.15339723 15022,6898.084,95.028,521.0509999999998,518.8480000000002,0.0
52494.0,STARLINK-3857,PAYLOAD,2022-08-09 14:00:01,15.14581008,0.0001617,53.2175,161.4554,42.4904,14.7918,-0.062241,-0.01076191,0.0,0 STARLINK-3857,1 52494U 22049AV  22221.58334491 -.01076191  00000-0 -62241-1 0  9990,2 52494  53.2175 161.4554 0001617  42.4904  14.7918 15.14581008  1300,6900.388000000001,95.076,523.369,521.137,0.0
52494.0,STARLINK-3857,PAYLOAD,2022-08-09 22:00:00,15.13821598,0.0001631,53.2175,159.9507,45.9606,29.3493,-0.063565,-0.01075716,0.0,0 STARLINK-3857,1 52494U 22049AV  22221.91667824 -.01075716  00000-0 -63565-1 0  9998,2 52494  53.2175 159.9507 0001631  45.9606  29.3493 15.13821598  1303,6902.695,95.123,525.686,523.435,0.0
52494.0,STARLINK-3857,PAYLOAD,2022-08-10 06:00:00,15.13059385,0.0001606,53.2174,158.4492,49.3719,43.0534,-0.064666,-0.01071388,0.0,0 STARLINK-3857,1 52494U 22049AV  22222.25001157 -.01071388  00000-0 -64666-1 0  9991,2 52494  53.2174 158.4492 0001606  49.3719  43.0534 15.13059385 15170,6905.013000000001,95.171,527.987,525.769,0.0
52494.0,STARLINK-3857,PAYLOAD,2022-08-10 14:00:01,15.12301319,0.0001851999999999,53.2176,156.9463,38.371,70.2576,-0.066226,-0.01073943,0.0,0 STARLINK-3857,1 52494U 22049AV  22222.58334491 -.01073943  00000-0 -66226-1 0  9990,2 52494  53.2176 156.9463 0001852  38.3710  70.2576 15.12301319  1309,6907.321,95.219,530.465,527.906,0.0
